{
  "type": "FeatureCollection",
  "features": [
    {
      "type": "Feature",
      "id": "tdl-guest-area",
      "properties": {
        "parkId": "TDL",
        "boundaryPurpose": "guest_orientation",
        "officialBoundary": false,
        "source": "OSM tourism=theme_park way + official Korean PDF + vector basemap visual alignment",
        "sourceOsmType": "way",
        "sourceOsmId": 1282875870,
        "sourceOsmUrl": "https://www.openstreetmap.org/way/1282875870",
        "license": "ODbL (OSM baseline) + app orientation edits",
        "notes": "일반 게스트 이용구역을 이해하기 위한 안내용 보정 경계입니다. 공식·법적 경계가 아니며 실제 운영구역은 현장 안내를 따라 주세요.",
        "checkedAt": "2026-08-02",
        "coordinateCount": 51,
        "geometryType": "Polygon",
        "multipolygon": false,
        "edits": [
          {
            "action": "keep_osm_segment",
            "osmIndexRange": [
              22,
              37
            ],
            "reason": "남·남동 게스트 외곽(투머로우랜드~크리터 접근). OSM 굴곡 유지"
          },
          {
            "action": "replace_segment",
            "removedOsmIndexRange": [
              38,
              43
            ],
            "reason": "동측 백스테이지·서비스 부지 제거. 수로/담장 쪽 외곽으로 축소",
            "removedApprox": "east of ~139.8845 toward 139.8872"
          },
          {
            "action": "keep_osm_segment_clamped",
            "osmIndexRange": [
              44,
              49
            ],
            "reason": "어드벤처랜드 북동 외곽 유지, maxBounds·서비스 쪽으로 과도한 돌출 클램프"
          },
          {
            "action": "replace_segment",
            "removedOsmIndexRange": [
              50,
              86
            ],
            "reason": "월드바자 입구 네크 유지. 모노레일 스테이션 본체·Bon Voyage·외부 상업·북측 주차 제외"
          },
          {
            "action": "replace_segment",
            "removedOsmIndexRange": [
              0,
              21
            ],
            "reason": "서측 OSM이 리조트 공유 노드·maxBounds 밖으로 연장됨 → 투머로우랜드 서측 담장/철도 쪽 게스트 외곽으로 축소"
          }
        ]
      },
      "geometry": {
        "type": "Polygon",
        "coordinates": [
          [
            [
              139.8770189,
              35.630888
            ],
            [
              139.8770826,
              35.6308102
            ],
            [
              139.8774751,
              35.6303265
            ],
            [
              139.8776696,
              35.6301561
            ],
            [
              139.8778984,
              35.6300237
            ],
            [
              139.8781569,
              35.6299361
            ],
            [
              139.8784778,
              35.6298384
            ],
            [
              139.8786291,
              35.6297924
            ],
            [
              139.8800872,
              35.6293604
            ],
            [
              139.8805104,
              35.6292783
            ],
            [
              139.8827144,
              35.6289578
            ],
            [
              139.8826264,
              35.6291056
            ],
            [
              139.8823699,
              35.6295773
            ],
            [
              139.8835982,
              35.6300474
            ],
            [
              139.8840038,
              35.6302425
            ],
            [
              139.884192,
              35.6303279
            ],
            [
              139.8839,
              35.6304
            ],
            [
              139.88395,
              35.6308
            ],
            [
              139.88405,
              35.6314
            ],
            [
              139.88415,
              35.632
            ],
            [
              139.88425,
              35.6326
            ],
            [
              139.88435,
              35.6332
            ],
            [
              139.8844,
              35.6338
            ],
            [
              139.8842,
              35.6343
            ],
            [
              139.8845,
              35.6340783
            ],
            [
              139.8843316,
              35.6343614
            ],
            [
              139.8837163,
              35.6348429
            ],
            [
              139.883513,
              35.6349735
            ],
            [
              139.8832901,
              35.63505
            ],
            [
              139.8831004,
              35.63505
            ],
            [
              139.8831,
              35.63495
            ],
            [
              139.8824,
              35.63505
            ],
            [
              139.8817,
              35.63515
            ],
            [
              139.8811,
              35.63522
            ],
            [
              139.8805,
              35.63526
            ],
            [
              139.88,
              35.63526
            ],
            [
              139.87955,
              35.63522
            ],
            [
              139.87915,
              35.6351
            ],
            [
              139.8788,
              35.6349
            ],
            [
              139.8785,
              35.6346
            ],
            [
              139.8783,
              35.63425
            ],
            [
              139.87815,
              35.6339
            ],
            [
              139.878,
              35.6335
            ],
            [
              139.8779,
              35.633
            ],
            [
              139.87785,
              35.6325
            ],
            [
              139.8779,
              35.632
            ],
            [
              139.87805,
              35.6315
            ],
            [
              139.87825,
              35.6311
            ],
            [
              139.87855,
              35.6308
            ],
            [
              139.87895,
              35.63055
            ],
            [
              139.8794,
              35.6304
            ],
            [
              139.8770189,
              35.630888
            ]
          ]
        ]
      }
    }
  ]
}