{
  "type": "FeatureCollection",
  "features": [
    {
      "type": "Feature",
      "id": "tds-guest-area",
      "properties": {
        "parkId": "TDS",
        "boundaryPurpose": "guest_orientation",
        "officialBoundary": false,
        "source": "OSM tourism=theme_park way + official Korean PDF + vector basemap visual alignment",
        "sourceOsmType": "way",
        "sourceOsmId": 203538370,
        "sourceOsmUrl": "https://www.openstreetmap.org/way/203538370",
        "license": "ODbL (OSM baseline) + app orientation edits",
        "notes": "일반 게스트 이용구역을 이해하기 위한 안내용 보정 경계입니다. 공식·법적 경계가 아니며 실제 운영구역은 현장 안내를 따라 주세요.",
        "checkedAt": "2026-08-02",
        "coordinateCount": 46,
        "geometryType": "Polygon",
        "multipolygon": false,
        "edits": [
          {
            "action": "keep_osm_plus_south_shore",
            "osmIndexRange": [
              0,
              4
            ],
            "reason": "동측 OSM 팁 유지 후 남측은 게스트 해안선을 따라 서진. 남측 서비스 수역·긴 대각선 제거"
          },
          {
            "action": "replace_segment",
            "removedOsmIndexRange": [
              24,
              142
            ],
            "reason": "버스터미널·외부 자동차도로·호텔 매스·리조트 공유 서쪽 로브 제거. 티켓게이트/하버 측 게스트 접근 외곽만 유지"
          },
          {
            "action": "add_guest_perimeter",
            "reason": "아메리칸 워터프런트·포트 디스커버리 북측 외곽 및 판타지 스프링스(프로즌/라푼젤/피터팬 연결부)를 도로·수로·건물 외곽을 따라 추가. OSM way가 FS·북측 게스트 구역을 누락",
            "includes": [
              "american-waterfront",
              "port-discovery",
              "fantasy-springs"
            ]
          },
          {
            "action": "replace_segment",
            "removedOsmIndexRange": [
              174,
              227
            ],
            "reason": "동측 OSM 요철·maxBounds 클램프 중복 세그먼트 대신 게스트 동측 해안/부지 선을 단순·비교차로 재구성"
          }
        ]
      },
      "geometry": {
        "type": "Polygon",
        "coordinates": [
          [
            [
              139.8891927,
              35.6259531
            ],
            [
              139.8893438,
              35.6258261
            ],
            [
              139.8893479,
              35.6257971
            ],
            [
              139.8890832,
              35.6255855
            ],
            [
              139.8890628,
              35.6255339
            ],
            [
              139.8892,
              35.6249
            ],
            [
              139.8884,
              35.6247
            ],
            [
              139.8874,
              35.6245
            ],
            [
              139.8864,
              35.62435
            ],
            [
              139.8854,
              35.6243
            ],
            [
              139.8844,
              35.62435
            ],
            [
              139.8834,
              35.6245
            ],
            [
              139.8827,
              35.62485
            ],
            [
              139.88235,
              35.6254
            ],
            [
              139.88222,
              35.6259
            ],
            [
              139.8822,
              35.6264
            ],
            [
              139.88225,
              35.6268
            ],
            [
              139.8824,
              35.6272
            ],
            [
              139.8826,
              35.62755
            ],
            [
              139.88295,
              35.6279
            ],
            [
              139.8833,
              35.62825
            ],
            [
              139.88375,
              35.6288
            ],
            [
              139.8842,
              35.6293
            ],
            [
              139.88465,
              35.6296
            ],
            [
              139.88515,
              35.6298
            ],
            [
              139.88565,
              35.62995
            ],
            [
              139.88615,
              35.63005
            ],
            [
              139.88665,
              35.6301
            ],
            [
              139.88715,
              35.63008
            ],
            [
              139.8876,
              35.63
            ],
            [
              139.88805,
              35.62995
            ],
            [
              139.88845,
              35.63005
            ],
            [
              139.88885,
              35.63015
            ],
            [
              139.8892,
              35.6302
            ],
            [
              139.8895,
              35.63005
            ],
            [
              139.88975,
              35.62975
            ],
            [
              139.8899,
              35.6294
            ],
            [
              139.88995,
              35.62905
            ],
            [
              139.88985,
              35.6287
            ],
            [
              139.88955,
              35.62835
            ],
            [
              139.88935,
              35.6279
            ],
            [
              139.88955,
              35.62745
            ],
            [
              139.8897,
              35.627
            ],
            [
              139.8898,
              35.62655
            ],
            [
              139.88965,
              35.6262
            ],
            [
              139.8894,
              35.626
            ],
            [
              139.8891927,
              35.6259531
            ]
          ]
        ]
      }
    }
  ]
}